[{"OBJECT_NAME":"EUTELSAT 65 WEST A","OBJECT_ID":"2016-014A","EPOCH":"2023-04-27T04:57:53.792640","MEAN_MOTION":1.00269434,"ECCENTRICITY":0.0001959,"INCLINATION":0.0835,"RA_OF_ASC_NODE":58.8481,"ARG_OF_PERICENTER":337.7445,"MEAN_ANOMALY":187.5863,"EPHEMERIS_TYPE":0,"CLASSIFICATION_TYPE":"U","NORAD_CAT_ID":41382,"ELEMENT_SET_NO":999,"REV_AT_EPOCH":2614,"BSTAR":0,"MEAN_MOTION_DOT":-2.78e-6,"MEAN_MOTION_DDOT":0},{"OBJECT_NAME":"IRNSS-1F","OBJECT_ID":"2016-015A","EPOCH":"2023-04-26T21:06:42.744960","MEAN_MOTION":1.00275656,"ECCENTRICITY":0.0020495,"INCLINATION":2.6759,"RA_OF_ASC_NODE":136.3647,"ARG_OF_PERICENTER":196.0144,"MEAN_ANOMALY":231.3369,"EPHEMERIS_TYPE":0,"CLASSIFICATION_TYPE":"U","NORAD_CAT_ID":41384,"ELEMENT_SET_NO":999,"REV_AT_EPOCH":2615,"BSTAR":0,"MEAN_MOTION_DOT":1.6e-6,"MEAN_MOTION_DDOT":0},{"OBJECT_NAME":"BEIDOU-2 IGSO-6","OBJECT_ID":"2016-021A","EPOCH":"2023-04-26T20:13:38.231040","MEAN_MOTION":1.00264673,"ECCENTRICITY":0.0047072,"INCLINATION":58.5637,"RA_OF_ASC_NODE":49.6013,"ARG_OF_PERICENTER":226.2708,"MEAN_ANOMALY":337.2234,"EPHEMERIS_TYPE":0,"CLASSIFICATION_TYPE":"U","NORAD_CAT_ID":41434,"ELEMENT_SET_NO":999,"REV_AT_EPOCH":2597,"BSTAR":0,"MEAN_MOTION_DOT":-1.58e-6,"MEAN_MOTION_DDOT":0},{"OBJECT_NAME":"IRNSS-1G","OBJECT_ID":"2016-027A","EPOCH":"2023-04-26T20:19:32.753568","MEAN_MOTION":1.00272414,"ECCENTRICITY":0.0007051,"INCLINATION":2.5782,"RA_OF_ASC_NODE":138.3561,"ARG_OF_PERICENTER":302.5438,"MEAN_ANOMALY":208.1174,"EPHEMERIS_TYPE":0,"CLASSIFICATION_TYPE":"U","NORAD_CAT_ID":41469,"ELEMENT_SET_NO":999,"REV_AT_EPOCH":2567,"BSTAR":0,"MEAN_MOTION_DOT":-3.34e-6,"MEAN_MOTION_DDOT":0},{"OBJECT_NAME":"JCSAT-2B","OBJECT_ID":"2016-028A","EPOCH":"2023-04-26T18:43:18.524928","MEAN_MOTION":1.00271144,"ECCENTRICITY":6.68e-5,"INCLINATION":0.0178,"RA_OF_ASC_NODE":244.2893,"ARG_OF_PERICENTER":139.2511,"MEAN_ANOMALY":265.8043,"EPHEMERIS_TYPE":0,"CLASSIFICATION_TYPE":"U","NORAD_CAT_ID":41471,"ELEMENT_SET_NO":999,"REV_AT_EPOCH":2561,"BSTAR":0,"MEAN_MOTION_DOT":-1.67e-6,"MEAN_MOTION_DDOT":0},{"OBJECT_NAME":"THAICOM 8","OBJECT_ID":"2016-031A","EPOCH":"2023-04-27T00:31:42.547872","MEAN_MOTION":1.00271913,"ECCENTRICITY":0.0005432,"INCLINATION":0.0591,"RA_OF_ASC_NODE":46.851,"ARG_OF_PERICENTER":1.5766,"MEAN_ANOMALY":252.7564,"EPHEMERIS_TYPE":0,"CLASSIFICATION_TYPE":"U","NORAD_CAT_ID":41552,"ELEMENT_SET_NO":999,"REV_AT_EPOCH":2527,"BSTAR":0,"MEAN_MOTION_DOT":-1.23e-6,"MEAN_MOTION_DDOT":0},{"OBJECT_NAME":"INTELSAT 31 (IS-31)","OBJECT_ID":"2016-035A","EPOCH":"2023-04-26T14:05:26.841408","MEAN_MOTION":1.00271998,"ECCENTRICITY":0.0001936,"INCLINATION":0.0205,"RA_OF_ASC_NODE":251.9255,"ARG_OF_PERICENTER":334.1442,"MEAN_ANOMALY":104.559,"EPHEMERIS_TYPE":0,"CLASSIFICATION_TYPE":"U","NORAD_CAT_ID":41581,"ELEMENT_SET_NO":999,"REV_AT_EPOCH":2518,"BSTAR":0,"MEAN_MOTION_DOT":-1.53e-6,"MEAN_MOTION_DDOT":0},{"OBJECT_NAME":"BEIDOU-2 G7","OBJECT_ID":"2016-037A","EPOCH":"2023-04-26T20:44:28.065408","MEAN_MOTION":1.00274957,"ECCENTRICITY":0.00092,"INCLINATION":1.5743,"RA_OF_ASC_NODE":65.783,"ARG_OF_PERICENTER":348.222,"MEAN_ANOMALY":222.2499,"EPHEMERIS_TYPE":0,"CLASSIFICATION_TYPE":"U","NORAD_CAT_ID":41586,"ELEMENT_SET_NO":999,"REV_AT_EPOCH":2527,"BSTAR":0,"MEAN_MOTION_DOT":-3.56e-6,"MEAN_MOTION_DDOT":0},{"OBJECT_NAME":"ABS-2A (MONGOLSAT-1)","OBJECT_ID":"2016-038A","EPOCH":"2023-04-27T00:31:42.547872","MEAN_MOTION":1.00271595,"ECCENTRICITY":0.0001574,"INCLINATION":0.0119,"RA_OF_ASC_NODE":248.4103,"ARG_OF_PERICENTER":40.9715,"MEAN_ANOMALY":8.0146,"EPHEMERIS_TYPE":0,"CLASSIFICATION_TYPE":"U","NORAD_CAT_ID":41588,"ELEMENT_SET_NO":999,"REV_AT_EPOCH":2518,"BSTAR":0,"MEAN_MOTION_DOT":-8.6e-7,"MEAN_MOTION_DDOT":0},{"OBJECT_NAME":"EUTELSAT 117 WEST B","OBJECT_ID":"2016-038B","EPOCH":"2023-04-27T02:22:34.110624","MEAN_MOTION":1.0027025,"ECCENTRICITY":2.5e-6,"INCLINATION":0.0122,"RA_OF_ASC_NODE":104.0842,"ARG_OF_PERICENTER":237.477,"MEAN_ANOMALY":151.9127,"EPHEMERIS_TYPE":0,"CLASSIFICATION_TYPE":"U","NORAD_CAT_ID":41589,"ELEMENT_SET_NO":999,"REV_AT_EPOCH":2520,"BSTAR":0,"MEAN_MOTION_DOT":-1.3e-7,"MEAN_MOTION_DDOT":0},{"OBJECT_NAME":"BRISAT","OBJECT_ID":"2016-039A","EPOCH":"2023-04-26T20:25:34.244256","MEAN_MOTION":1.00271531,"ECCENTRICITY":0.0002064,"INCLINATION":0.0169,"RA_OF_ASC_NODE":255.2492,"ARG_OF_PERICENTER":131.5002,"MEAN_ANOMALY":284.7204,"EPHEMERIS_TYPE":0,"CLASSIFICATION_TYPE":"U","NORAD_CAT_ID":41591,"ELEMENT_SET_NO":999,"REV_AT_EPOCH":2510,"BSTAR":0,"MEAN_MOTION_DOT":-1.99e-6,"MEAN_MOTION_DDOT":0},{"OBJECT_NAME":"ECHOSTAR 18","OBJECT_ID":"2016-039B","EPOCH":"2023-04-27T03:06:30.501216","MEAN_MOTION":1.0027307,"ECCENTRICITY":0.0001365,"INCLINATION":0.017,"RA_OF_ASC_NODE":246.4858,"ARG_OF_PERICENTER":138.9867,"MEAN_ANOMALY":174.6751,"EPHEMERIS_TYPE":0,"CLASSIFICATION_TYPE":"U","NORAD_CAT_ID":41592,"ELEMENT_SET_NO":999,"REV_AT_EPOCH":2511,"BSTAR":0,"MEAN_MOTION_DOT":-2.84e-6,"MEAN_MOTION_DDOT":0},{"OBJECT_NAME":"MUOS-5","OBJECT_ID":"2016-041A","EPOCH":"2023-04-26T15:45:29.078784","MEAN_MOTION":1.00272529,"ECCENTRICITY":0.0193053,"INCLINATION":4.8747,"RA_OF_ASC_NODE":298.7323,"ARG_OF_PERICENTER":242.8461,"MEAN_ANOMALY":164.1902,"EPHEMERIS_TYPE":0,"CLASSIFICATION_TYPE":"U","NORAD_CAT_ID":41622,"ELEMENT_SET_NO":999,"REV_AT_EPOCH":2558,"BSTAR":0,"MEAN_MOTION_DOT":-1.67e-6,"MEAN_MOTION_DDOT":0},{"OBJECT_NAME":"TIANTONG-1 1","OBJECT_ID":"2016-048A","EPOCH":"2023-04-27T12:17:11.463936","MEAN_MOTION":1.00273468,"ECCENTRICITY":0.0006095,"INCLINATION":2.2839,"RA_OF_ASC_NODE":12.9046,"ARG_OF_PERICENTER":2.9874,"MEAN_ANOMALY":125.058,"EPHEMERIS_TYPE":0,"CLASSIFICATION_TYPE":"U","NORAD_CAT_ID":41725,"ELEMENT_SET_NO":999,"REV_AT_EPOCH":2476,"BSTAR":0,"MEAN_MOTION_DOT":-3.19e-6,"MEAN_MOTION_DDOT":0},{"OBJECT_NAME":"JCSAT-16","OBJECT_ID":"2016-050A","EPOCH":"2023-04-27T01:29:42.628416","MEAN_MOTION":1.00272621,"ECCENTRICITY":0.0002298,"INCLINATION":0.0782,"RA_OF_ASC_NODE":87.6516,"ARG_OF_PERICENTER":201.42,"MEAN_ANOMALY":41.1421,"EPHEMERIS_TYPE":0,"CLASSIFICATION_TYPE":"U","NORAD_CAT_ID":41729,"ELEMENT_SET_NO":999,"REV_AT_EPOCH":2455,"BSTAR":0,"MEAN_MOTION_DOT":-2.56e-6,"MEAN_MOTION_DDOT":0},{"OBJECT_NAME":"USA 270","OBJECT_ID":"2016-052A","EPOCH":"2023-04-21T08:55:35.559840","MEAN_MOTION":1.0013877,"ECCENTRICITY":8.89e-5,"INCLINATION":1.2295,"RA_OF_ASC_NODE":91.8308,"ARG_OF_PERICENTER":93.316,"MEAN_ANOMALY":335.0059,"EPHEMERIS_TYPE":0,"CLASSIFICATION_TYPE":"U","NORAD_CAT_ID":41744,"ELEMENT_SET_NO":999,"REV_AT_EPOCH":718,"BSTAR":0,"MEAN_MOTION_DOT":4.0e-8,"MEAN_MOTION_DDOT":0},{"OBJECT_NAME":"USA 271","OBJECT_ID":"2016-052B","EPOCH":"2023-04-21T06:04:42.667104","MEAN_MOTION":1.00147173,"ECCENTRICITY":0.0001224,"INCLINATION":1.2015,"RA_OF_ASC_NODE":91.8489,"ARG_OF_PERICENTER":23.2434,"MEAN_ANOMALY":203.6072,"EPHEMERIS_TYPE":0,"CLASSIFICATION_TYPE":"U","NORAD_CAT_ID":41745,"ELEMENT_SET_NO":999,"REV_AT_EPOCH":717,"BSTAR":0,"MEAN_MOTION_DOT":9.5e-7,"MEAN_MOTION_DDOT":0},{"OBJECT_NAME":"INTELSAT 36 (IS-36)","OBJECT_ID":"2016-053A","EPOCH":"2023-04-27T01:53:42.461952","MEAN_MOTION":1.00271602,"ECCENTRICITY":0.0001264,"INCLINATION":0.0147,"RA_OF_ASC_NODE":337.3434,"ARG_OF_PERICENTER":358.4267,"MEAN_ANOMALY":335.9529,"EPHEMERIS_TYPE":0,"CLASSIFICATION_TYPE":"U","NORAD_CAT_ID":41747,"ELEMENT_SET_NO":999,"REV_AT_EPOCH":2443,"BSTAR":0,"MEAN_MOTION_DOT":-2.6e-7,"MEAN_MOTION_DDOT":0},{"OBJECT_NAME":"INTELSAT 33E (IS-33E)","OBJECT_ID":"2016-053B","EPOCH":"2023-04-26T20:24:42.566688","MEAN_MOTION":1.00271271,"ECCENTRICITY":0.0001745,"INCLINATION":0.0152,"RA_OF_ASC_NODE":282.2802,"ARG_OF_PERICENTER":105.6569,"MEAN_ANOMALY":192.8121,"EPHEMERIS_TYPE":0,"CLASSIFICATION_TYPE":"U","NORAD_CAT_ID":41748,"ELEMENT_SET_NO":999,"REV_AT_EPOCH":2471,"BSTAR":0,"MEAN_MOTION_DOT":4.7e-7,"MEAN_MOTION_DDOT":0},{"OBJECT_NAME":"INSAT-3DR","OBJECT_ID":"2016-054A","EPOCH":"2023-04-26T20:03:36.311616","MEAN_MOTION":1.00270665,"ECCENTRICITY":0.0011558,"INCLINATION":0.167,"RA_OF_ASC_NODE":91.117,"ARG_OF_PERICENTER":188.389,"MEAN_ANOMALY":309.9802,"EPHEMERIS_TYPE":0,"CLASSIFICATION_TYPE":"U","NORAD_CAT_ID":41752,"ELEMENT_SET_NO":999,"REV_AT_EPOCH":2431,"BSTAR":0,"MEAN_MOTION_DOT":-7.9e-7,"MEAN_MOTION_DDOT":0},{"OBJECT_NAME":"GSAT-18","OBJECT_ID":"2016-060A","EPOCH":"2023-04-26T18:24:42.782112","MEAN_MOTION":1.00273124,"ECCENTRICITY":0.0001671,"INCLINATION":0.0197,"RA_OF_ASC_NODE":135.4878,"ARG_OF_PERICENTER":238.347,"MEAN_ANOMALY":190.836,"EPHEMERIS_TYPE":0,"CLASSIFICATION_TYPE":"U","NORAD_CAT_ID":41793,"ELEMENT_SET_NO":999,"REV_AT_EPOCH":2403,"BSTAR":0,"MEAN_MOTION_DOT":-8.0e-7,"MEAN_MOTION_DDOT":0},{"OBJECT_NAME":"SKY MUSTER 2 (NBN1B)","OBJECT_ID":"2016-060B","EPOCH":"2023-04-27T01:25:42.892608","MEAN_MOTION":1.0027039,"ECCENTRICITY":0.0001535,"INCLINATION":0.0145,"RA_OF_ASC_NODE":258.8684,"ARG_OF_PERICENTER":124.5773,"MEAN_ANOMALY":357.555,"EPHEMERIS_TYPE":0,"CLASSIFICATION_TYPE":"U","NORAD_CAT_ID":41794,"ELEMENT_SET_NO":999,"REV_AT_EPOCH":2407,"BSTAR":0,"MEAN_MOTION_DOT":-2.46e-6,"MEAN_MOTION_DDOT":0},{"OBJECT_NAME":"HIMAWARI-9","OBJECT_ID":"2016-064A","EPOCH":"2023-04-26T20:22:48.561888","MEAN_MOTION":1.00270515,"ECCENTRICITY":8.08e-5,"INCLINATION":0.0058,"RA_OF_ASC_NODE":203.6277,"ARG_OF_PERICENTER":208.481,"MEAN_ANOMALY":248.9205,"EPHEMERIS_TYPE":0,"CLASSIFICATION_TYPE":"U","NORAD_CAT_ID":41836,"ELEMENT_SET_NO":999,"REV_AT_EPOCH":2368,"BSTAR":0,"MEAN_MOTION_DOT":-2.77e-6,"MEAN_MOTION_DDOT":0},{"OBJECT_NAME":"SHIJIAN-17 (SJ-17)","OBJECT_ID":"2016-065A","EPOCH":"2023-04-26T21:31:42.621312","MEAN_MOTION":1.0027334,"ECCENTRICITY":0.000107,"INCLINATION":2.8217,"RA_OF_ASC_NODE":86.1665,"ARG_OF_PERICENTER":157.0061,"MEAN_ANOMALY":49.7121,"EPHEMERIS_TYPE":0,"CLASSIFICATION_TYPE":"U","NORAD_CAT_ID":41838,"ELEMENT_SET_NO":999,"REV_AT_EPOCH":2370,"BSTAR":0,"MEAN_MOTION_DOT":-3.62e-6,"MEAN_MOTION_DDOT":0}]
